[{"OBJECT_NAME":"STARLINK-3680","OBJECT_ID":"2022-025P","EPOCH":"2026-03-09T06:42:53.220960","MEAN_MOTION":15.30084933,"ECCENTRICITY":0.00015454,"INCLINATION":53.1604,"RA_OF_ASC_NODE":26.2267,"ARG_OF_PERICENTER":107.1319,"MEAN_ANOMALY":252.9851,"EPHEMERIS_TYPE":0,"CLASSIFICATION_TYPE":"U","NORAD_CAT_ID":51969,"ELEMENT_SET_NO":999,"REV_AT_EPOCH":22094,"BSTAR":0.001642036,"MEAN_MOTION_DOT":0.00048417,"MEAN_MOTION_DDOT":0},{"OBJECT_NAME":"JINJUSAT-1B","OBJECT_ID":"2025-052A","EPOCH":"2026-03-09T15:55:38.242848","MEAN_MOTION":15.30194857,"ECCENTRICITY":0.00055504,"INCLINATION":97.4113,"RA_OF_ASC_NODE":325.4613,"ARG_OF_PERICENTER":82.193,"MEAN_ANOMALY":277.9941,"EPHEMERIS_TYPE":0,"CLASSIFICATION_TYPE":"U","NORAD_CAT_ID":63210,"ELEMENT_SET_NO":999,"REV_AT_EPOCH":5486,"BSTAR":0.00068430401,"MEAN_MOTION_DOT":0.00019955,"MEAN_MOTION_DDOT":0}]
